GONETS-M 17             
1 46486U 20068A   26139.95465103  .00000043  00000+0  23682-3 0  9998
2 46486  82.5005   5.0689 0023389  96.0587 264.3159 12.42872093255659
GONETS-M 18             
1 46487U 20068B   26139.99880461  .00000059  00000+0  35561-3 0  9997
2 46487  82.4957   4.1701 0020723  92.3997 267.9455 12.42871527255641
GONETS-M 19             
1 46488U 20068C   26139.97463940  .00000056  00000+0  33238-3 0  9991
2 46488  82.4983   4.6303 0014332 106.1792 254.0866 12.42891326255743
DEKART                  
1 46493U 20068H   26139.95180347  .00009394  00000+0  26472-3 0  9998
2 46493  97.8749 147.2160 0009905  36.8338 323.3583 15.36631550311431
NORBI                   
1 46494U 20068J   26139.96989530  .00018098  00000+0  35797-3 0  9992
2 46494  97.8641 153.4761 0006618  19.7031 340.4472 15.47152188311846
SALSAT                  
1 46495U 20068K   26139.94978945  .00005743  00000+0  20444-3 0  9995
2 46495  97.8857 141.3065 0011075  49.8276 310.3931 15.29339301311049
ICEYE-X6                
1 46497U 20068M   26139.92408027  .00002258  00000+0  16667-3 0  9994
2 46497  98.0970 132.2501 0007215 173.8751 186.2563 15.04353030308989
NETSAT-4                
1 46504U 20068U   26139.92123690  .00013111  00000+0  30093-3 0  9992
2 46504  97.8613 145.9141 0007360  72.0288 288.1760 15.42835260311411
NETSAT-3                
1 46505U 20068V   26139.97032756  .00014502  00000+0  34632-3 0  9998
2 46505  97.8665 144.2200 0007455  84.7945 275.4151 15.41613605311332
NETSAT-1                
1 46506U 20068W   26139.96068397  .00009635  00000+0  29636-3 0  9997
2 46506  97.8752 138.8676 0006991 104.5342 255.6675 15.33884394310978
NETSAT-2                
1 46507U 20068X   26139.93289003  .00017131  00000+0  36879-3 0  9991
2 46507  97.8630 145.7245 0006258  94.9408 265.2554 15.44683915311370
TIANQI-6                
1 46810U 20076D   26139.65233077  .00002057  00000+0  13642-3 0  9990
2 46810  34.9985 223.5663 0010979 276.7766  83.1694 15.06977859304277
KSM1-C                  
1 46906U 20081B   26139.70686106  .00005649  00000+0  21669-3 0  9991
2 46906  36.8938 234.7054 0002453 306.7429  53.3094 15.26236031304813
KSM1-D                  
1 46907U 20081C   26139.73700287  .00004622  00000+0  18865-3 0  9996
2 46907  36.8968 242.9883 0003781   2.7274 357.3495 15.24292963304753
KSM1-A                  
1 46912U 20081H   26139.69573400  .00005467  00000+0  21465-3 0  9990
2 46912  36.8959 236.9534 0001854  82.7413 277.3547 15.25484133304827
R2                      
1 46913U 20081J   26139.96947297  .00005460  00000+0  21745-3 0  9994
2 46913  36.8970 235.1075 0006324  38.8854 321.2349 15.24993097307678
KSM1-B                  
1 46914U 20081K   26139.73659244  .00004381  00000+0  18008-3 0  9991
2 46914  36.9019 243.5284 0005015  31.3018 328.8028 15.24090410307848
GONETS-M 20             
1 47227U 20091A   26139.91265692  .00000092  00000+0  59373-3 0  9995
2 47227  82.5028 320.0171 0020087 240.9915 118.9152 12.42893152247568
GONETS-M 21             
1 47228U 20091B   26139.96687583  .00000037  00000+0  19615-3 0  9992
2 47228  82.4951 318.7075 0013797 255.4781 104.4768 12.42885230247563
GONETS-M 22             
1 47229U 20091C   26139.94008667 -.00000035  00000+0 -32228-3 0  9996
2 47229  82.5010 319.6098 0020989 236.0648 123.8437 12.42891138247511
CUBEL                   
1 47448U 21006AM  26139.39183806  .00005441  00000+0  13616-3 0  9998
2 47448  97.2350 190.2620 0004784 276.2490  83.8212 15.40505965295323
ARKTIKA-M 1             
1 47719U 21016A   26139.08335878 -.00000154  00000+0  00000+0 0  9990
2 47719  63.2280  61.8651 7277473 269.7896  14.7864  2.00632267 38203
STARLINK-2342           
1 47883U 21021Z   26139.74255435  .00083706  00000+0  12065-2 0  9991
2 47883  53.1550 287.8927 0003350 256.0866 103.9773 15.55313907287442
GRUS-1B                 
1 47934U 21022C   26139.93937477  .00000705  00000+0  62874-4 0  9996
2 47934  97.5405  24.0616 0016924  57.8972 302.3892 14.98903970281668
UNISAT-7                
1 47945U 21022P   26139.96026775  .00010316  00000+0  26329-3 0  9994
2 47945  97.3913  44.6049 0009673 162.6050 197.5529 15.39642827285511
GLOBAL-9                
1 47971U 21023G   26139.17671547  .00013349  00000+0  28059-3 0  9991
2 47971  44.9823  53.4302 0002852 158.7813 201.3196 15.45344146290456
AII-BRAVO               
1 48270U 21034C   26139.86655309  .00002181  00000+0  16545-3 0  9999
2 48270  97.5636 195.4266 0006157  23.7184 336.4325 15.03233024275368
