OBJECT_NAME,OBJECT_ID,EPOCH,MEAN_MOTION,ECCENTRICITY,INCLINATION,RA_OF_ASC_NODE,ARG_OF_PERICENTER,MEAN_ANOMALY,EPHEMERIS_TYPE,CLASSIFICATION_TYPE,NORAD_CAT_ID,ELEMENT_SET_NO,REV_AT_EPOCH,BSTAR,MEAN_MOTION_DOT,MEAN_MOTION_DDOT
GONETS-M 17,2020-068A,2026-05-19T22:54:41.848992,12.42872093,.00233894,82.5005,5.0689,96.0587,264.3159,0,U,46486,999,25565,.2368157E-3,.43E-6,0
GONETS-M 18,2020-068B,2026-05-19T23:58:16.718304,12.42871527,.00207237,82.4957,4.1701,92.3997,267.9455,0,U,46487,999,25564,.35560774E-3,.59E-6,0
GONETS-M 19,2020-068C,2026-05-19T23:23:28.844160,12.42891326,.00143321,82.4983,4.6303,106.1792,254.0866,0,U,46488,999,25574,.33238471E-3,.56E-6,0
DEKART,2020-068H,2026-05-19T22:50:35.819808,15.36631550,.00099053,97.8749,147.2160,36.8338,323.3583,0,U,46493,999,31143,.26471748E-3,.9394E-4,0
NORBI,2020-068J,2026-05-19T23:16:38.953920,15.47152188,.00066181,97.8641,153.4761,19.7031,340.4472,0,U,46494,999,31184,.3579688E-3,.18098E-3,0
SALSAT,2020-068K,2026-05-19T22:47:41.808480,15.29339301,.00110758,97.8857,141.3065,49.8276,310.3931,0,U,46495,999,31104,.2044405E-3,.5743E-4,0
ICEYE-X6,2020-068M,2026-05-19T22:10:40.535328,15.04353030,.00072159,98.0970,132.2501,173.8751,186.2563,0,U,46497,999,30898,.16667136E-3,.2258E-4,0
NETSAT-4,2020-068U,2026-05-19T22:06:34.868160,15.42835260,.00073605,97.8613,145.9141,72.0288,288.1760,0,U,46504,999,31141,.30092872E-3,.13111E-3,0
NETSAT-3,2020-068V,2026-05-19T23:17:16.301184,15.41613605,.00074552,97.8665,144.2200,84.7945,275.4151,0,U,46505,999,31133,.34632255E-3,.14502E-3,0
NETSAT-1,2020-068W,2026-05-19T23:03:23.095008,15.33884394,.0006991,97.8752,138.8676,104.5342,255.6675,0,U,46506,999,31097,.29636422E-3,.9635E-4,0
NETSAT-2,2020-068X,2026-05-19T22:23:21.698592,15.44683915,.00062584,97.8630,145.7245,94.9408,265.2554,0,U,46507,999,31137,.36879424E-3,.17131E-3,0
TIANQI-6,2020-076D,2026-05-19T15:39:21.378528,15.06977859,.00109794,34.9985,223.5663,276.7766,83.1694,0,U,46810,999,30427,.13641742E-3,.2057E-4,0
KSM1-C,2020-081B,2026-05-19T16:57:52.795584,15.26236031,.00024533,36.8938,234.7054,306.7429,53.3094,0,U,46906,999,30481,.21669038E-3,.5649E-4,0
KSM1-D,2020-081C,2026-05-19T17:41:17.047968,15.24292963,.00037816,36.8968,242.9883,2.7274,357.3495,0,U,46907,999,30475,.18865281E-3,.4622E-4,0
KSM1-A,2020-081H,2026-05-19T16:41:51.417600,15.25484133,.00018548,36.8959,236.9534,82.7413,277.3547,0,U,46912,999,30482,.21464665E-3,.5467E-4,0
R2,2020-081J,2026-05-19T23:16:02.464608,15.24993097,.0006324,36.8970,235.1075,38.8854,321.2349,0,U,46913,999,30767,.21744888E-3,.546E-4,0
KSM1-B,2020-081K,2026-05-19T17:40:41.586816,15.24090410,.00050152,36.9019,243.5284,31.3018,328.8028,0,U,46914,999,30784,.18008152E-3,.4381E-4,0
GONETS-M 20,2020-091A,2026-05-19T21:54:13.557888,12.42893152,.00200879,82.5028,320.0171,240.9915,118.9152,0,U,47227,999,24756,.59372808E-3,.92E-6,0
GONETS-M 21,2020-091B,2026-05-19T23:12:18.071712,12.42885230,.00137975,82.4951,318.7075,255.4781,104.4768,0,U,47228,999,24756,.19614997E-3,.37E-6,0
GONETS-M 22,2020-091C,2026-05-19T22:33:43.488288,12.42891138,.00209897,82.5010,319.6098,236.0648,123.8437,0,U,47229,999,24751,-.32227963E-3,-.35E-6,0
CUBEL,2021-006AM,2026-05-19T09:24:14.808384,15.40505965,.00047847,97.2350,190.2620,276.2490,83.8212,0,U,47448,999,29532,.13616234E-3,.5441E-4,0
ARKTIKA-M 1,2021-016A,2026-05-19T02:00:02.198592,2.00632267,.72774738,63.2280,61.8651,269.7896,14.7864,0,U,47719,999,3820,0,-.154E-5,0
STARLINK-2342,2021-021Z,2026-05-19T17:49:16.695840,15.55313907,.00033506,53.1550,287.8927,256.0866,103.9773,0,U,47883,999,28744,.120649E-2,.83706E-3,0
GRUS-1B,2021-022C,2026-05-19T22:32:41.980128,14.98903970,.00169242,97.5405,24.0616,57.8972,302.3892,0,U,47934,999,28166,.62874389E-4,.705E-5,0
UNISAT-7,2021-022P,2026-05-19T23:02:47.133600,15.39642827,.00096733,97.3913,44.6049,162.6050,197.5529,0,U,47945,999,28551,.26328804E-3,.10316E-3,0
GLOBAL-9,2021-023G,2026-05-19T04:14:28.216608,15.45344146,.00028525,44.9823,53.4302,158.7813,201.3196,0,U,47971,999,29045,.2805889E-3,.13349E-3,0
AII-BRAVO,2021-034C,2026-05-19T20:47:50.186976,15.03233024,.00061572,97.5636,195.4266,23.7184,336.4325,0,U,48270,999,27536,.1654525E-3,.2181E-4,0
